{"type":"FeatureCollection","name":"northeast_china_admin1","crs":{"type":"name","properties":{"name":"urn:ogc:def:crs:OGC:1.3:CRS84"}},"source":{"title":"Natural Earth Admin 1 - States, Provinces","scale":"1:50m","url":"https://www.naturalearthdata.com/downloads/50m-cultural-vectors/50m-admin-1-states-provinces/","license":"Public domain"},"features":[{"type":"Feature","properties":{"name":"辽宁省","name_en":"Liaoning","iso_3166_2":"CN-LN","source":"Natural Earth Admin-1 1:50m"},"geometry":{"type":"Polygon","coordinates":[[[125.70851476185581,40.852873096446196],[125.6882251323483,40.838670355790924],[125.65923465383253,40.79588226985325],[125.64507531138457,40.77895823827767],[125.593812290551,40.77895823827767],[125.54254926971748,40.742578029944184],[125.41687218638367,40.659895738277186],[125.31444949758117,40.644625352534945],[125.18587853403898,40.589383246414926],[125.07291385304893,40.54744782161008],[125.02599165252792,40.523883368484974],[125.01338260304868,40.497838446609876],[124.99684614471528,40.46476552994308],[124.9422758322151,40.45815094660972],[124.88935916554823,40.45980459244305],[124.77195031138109,40.38373688410941],[124.71241906138084,40.31924469660916],[124.48101199757781,40.181656195632044],[124.38665083221287,40.10427073827496],[124.36210937499999,40.004052734374994],[124.35000000000002,40.011572265625],[124.26748046875002,39.924169921875],[124.10576171874999,39.841015625],[123.76015625000002,39.822412109374994],[123.65087890625,39.881591796875],[123.61123046875002,39.8408203125],[123.58066406250003,39.7861328125],[123.49003906249999,39.767871093749996],[123.34814453125,39.762939453125],[123.26894531250002,39.726904296875],[123.2265625,39.68662109375],[123.0322265625,39.67353515625],[122.9609375,39.619921874999996],[122.84003906250001,39.600830078125],[122.33486328125002,39.366113281249994],[122.22500000000002,39.267333984375],[122.12089843749999,39.151904296874996],[122.04765624999999,39.093798828124996],[121.98232421875002,39.053173828125],[121.92265624999999,39.036523437499994],[121.86435546875003,38.996484374999994],[121.80517578125,38.99140625],[121.74482421875001,39.009667968749994],[121.67724609375,39.00341796875],[121.6328125,38.954833984375],[121.67041015625,38.891796875],[121.64990234375,38.865087890625],[121.51718750000003,38.83076171875],[121.32011718749999,38.808203125],[121.236328125,38.766943359375],[121.20742187500002,38.743505859375],[121.16357421875,38.731640625],[121.12167968750003,38.813281249999996],[121.10673828124999,38.920800781249994],[121.18828124999999,38.946679687499994],[121.26328125000003,38.960253906249996],[121.67988281250001,39.108691406249996],[121.62763671875001,39.220166015625],[121.66455078125,39.26875],[121.7578125,39.347558593749994],[121.81845703125003,39.386523437499996],[121.78544921874999,39.400830078125],[121.51249999999999,39.374853515625],[121.35566406250001,39.376806640625],[121.27548828125003,39.384765625],[121.2998046875,39.452197265624996],[121.28632812500001,39.519433593749994],[121.26748046875002,39.544677734375],[121.40644531250001,39.621240234374994],[121.46953124999999,39.64013671875],[121.517578125,39.638964843749996],[121.51425781250003,39.68525390625],[121.47421875000003,39.7548828125],[121.51738281249999,39.84482421875],[121.80097656250001,39.950537109375],[121.86894531249999,40.04638671875],[121.98281250000002,40.13583984375],[122.19091796875,40.358251953125],[122.20332031250001,40.396044921874996],[122.26386718750001,40.5001953125],[122.27500000000003,40.541845703125],[122.1787109375,40.602734375],[122.14042968749999,40.68818359375],[121.85878906250002,40.842089843749996],[121.83486328125002,40.974267578124994],[121.80859375,40.968505859375],[121.765625,40.875878906249994],[121.72929687499999,40.846142578125],[121.59892578124999,40.843408203124994],[121.537109375,40.87841796875],[121.17451171875001,40.901269531249994],[121.0859375,40.841601562499996],[121.0029296875,40.74912109375],[120.92226562500002,40.68310546875],[120.84130859375,40.649218749999996],[120.77070312500001,40.5890625],[120.47910156250003,40.23095703125],[120.36894531249999,40.203857421875],[119.85039062499999,39.987451171874994],[119.84938816084055,39.98712324715843],[119.73804568885737,40.09951650738088],[119.74259321510476,40.205194811291506],[119.634744500858,40.20907054307111],[119.58012251174443,40.373401598404996],[119.59986290944562,40.47693533040115],[119.56368940594132,40.54005809190738],[119.29362837075269,40.53070465789364],[119.18975874197235,40.6201048847326],[119.19099897722094,40.70041006087558],[119.06790571467695,40.651343289261376],[118.85468875488209,40.82060944357096],[118.96475955630842,41.074702460050446],[119.04775190582575,41.09439118090825],[119.1635071150613,41.17640167939396],[119.2309965347622,41.273398341959876],[119.36163455618976,41.374994208515886],[119.38974653507444,41.47255931186271],[119.31559085473407,41.65781932240378],[119.29864098499343,41.7773469097321],[119.33078372618797,41.867548123147344],[119.32174034963737,41.96539744733428],[119.36587202407463,42.10047964132235],[119.24525923112856,42.191946925710056],[119.33574466358527,42.289408678068014],[119.56275923085377,42.37183258680443],[119.62942182825475,42.25054800118926],[119.82145145132336,42.20861257640922],[119.80822228373131,42.120220038124216],[119.89188642771637,41.99945221644663],[119.96015099467263,41.97175364781259],[120.03032759044595,41.86059764346646],[120.02640018092359,41.733835353818506],[120.10758385621,41.70652435971141],[120.14076012617886,41.789284166131324],[120.34017947760071,41.96581085938362],[120.46880211832308,42.03800283496287],[120.50916141196956,42.14869375311417],[120.62786217699784,42.16037262619574],[120.7350907736203,42.22786204679602],[120.91259931880347,42.296565864223226],[121.03424563962449,42.26010814077807],[121.36885053872129,42.49999013953328],[121.54444705598678,42.53523346615151],[121.64609459758753,42.453584702871694],[121.72366092261348,42.457667141125626],[121.87776004389082,42.539574285924516],[121.91827436716824,42.64659617787129],[122.04503665591687,42.72085521099916],[122.29938805571419,42.63646759750162],[122.39958865828987,42.658326727796236],[122.42568525556999,42.72204376940442],[122.36687747631447,42.79909332869414],[122.47637983606057,42.84963288045304],[122.72794070879661,42.74100901985037],[122.89278852806808,42.74493642847335],[123.13127526284302,42.82637848617816],[123.18186648964672,42.94409739837619],[123.3544140974326,43.012310289388324],[123.61196943634036,43.08135000270045],[123.69625369705045,43.35347809543771],[123.74870527582777,43.47228221325349],[123.80653120315242,43.454221300372694],[124.00641564256784,43.31012156825574],[124.28185102810244,43.22599233717659],[124.29580366430764,43.15656505023685],[124.41889692595237,43.08186676753729],[124.3759021339763,42.98556773516282],[124.51956261562214,42.87167287880027],[124.67319664890613,42.99897776990815],[124.76569746296752,43.10558624890626],[124.88842899030556,43.08672435214709],[124.86031701142088,42.88769257345348],[124.94212080343232,42.80369253178492],[125.0189119812029,42.64685456028968],[125.09575483581693,42.57667796541574],[125.10195600756367,42.493866482152384],[125.20871951709194,42.405835679972654],[125.17936730385793,42.33328196918751],[125.2694910011088,42.309045722082374],[125.28396040305006,42.23445079217032],[125.48053755056742,42.151432604231275],[125.45821333227946,42.10544057871971],[125.29543256965735,41.95723257082648],[125.28628584211788,41.825922756729824],[125.32819542937557,41.74737457887369],[125.30628462133814,41.68037608468853],[125.44953169183407,41.67993683511685],[125.46989220626028,41.57456859046806],[125.65075971928559,41.286265774345964],[125.73767947832516,41.245234687131074],[125.76641157393499,41.13947886795535],[125.6917391296571,41.0040607771831],[125.57644900931427,40.912619330317796],[125.70851476185581,40.852873096446196]]]}},{"type":"Feature","properties":{"name":"吉林省","name_en":"Jilin","iso_3166_2":"CN-JL","source":"Natural Earth Admin-1 1:50m"},"geometry":{"type":"Polygon","coordinates":[[[131.2450725846415,43.466681333078924],[131.2617867371883,43.433059800788286],[131.2573425640112,43.37807607682973],[131.2393591655736,43.33766510677748],[131.21186730359432,43.25777334245424],[131.17564212455773,43.14219900163347],[131.13559288953155,43.097628078781725],[131.10897952690124,43.06243642839097],[131.0861902202605,43.03809682878149],[131.0835030457813,42.956293036463464],[131.06856855684896,42.9022653265023],[131.00557498588518,42.88311920833816],[130.94283979708285,42.851751613937],[130.86852908744714,42.86332713477037],[130.8032617534625,42.8568159043016],[130.7224914897903,42.8358352727911],[130.5772807150501,42.81159902604621],[130.49294477754978,42.77909455013463],[130.45274051322673,42.75542674414494],[130.4247835633568,42.72703054460057],[130.41997765515367,42.69987457943118],[130.43920128796623,42.68553436947019],[130.52059166882594,42.67432058366285],[130.576557244998,42.623238430342326],[130.5844637391387,42.56732453060252],[130.52694786999785,42.53538849544614],[130.49821577364355,42.57052846940462],[130.45031172090899,42.58169057877967],[130.3607047873149,42.63083486588924],[130.29559248262711,42.68494009049883],[130.246706577679,42.74483307552511],[130.24882531140298,42.87262889258291],[130.24035037650708,42.891775010747054],[130.1512602072359,42.91794912370288],[130.12480187390247,42.95598297786971],[130.0826339051523,42.974173082036444],[130.02227583223538,42.96259756120307],[129.97700727754773,42.974844875656245],[129.94124718640177,42.995670477869865],[129.89825239473493,42.99815094661987],[129.86104536348478,42.96507802995308],[129.8415116720784,42.894229641280916],[129.77918989473443,42.776562404952315],[129.77340213431773,42.70545563411871],[129.74653038952596,42.60380809180059],[129.71976199759877,42.47497874609695],[129.6977995138747,42.44813283952132],[129.6279846538484,42.44428294531558],[129.6039034364004,42.43591136328429],[129.56752322806693,42.39208974870078],[129.5237016134834,42.38464834245076],[129.4848409363999,42.41027985286752],[129.42365604056636,42.43591136328429],[129.36577843639947,42.43921865495098],[129.3136885926492,42.413587144534205],[129.25250369681567,42.35787995052357],[129.2177771343155,42.31271474870047],[129.2053747905655,42.270546779950294],[129.19545291556545,42.218456936200084],[129.13369957897663,42.168511664389996],[129.07721723848164,42.142389227866445],[128.96063520723118,42.06880198828283],[128.92342817598103,42.03820954036604],[128.83981570853274,42.03784780533999],[128.74896854056362,42.04069000911605],[128.62670210176105,42.02084625911597],[128.42723107311446,42.010717678386754],[128.3078585145202,42.02565216731911],[128.16016727103005,42.011596177735726],[128.0452388856129,41.98751496028771],[128.02870242727948,41.951625678061006],[128.03293989472746,41.8984764674488],[128.05609093639418,41.863749904948676],[128.08420291556098,41.84059886328191],[128.13190026256638,41.769130357422256],[128.18176801972805,41.70003896744801],[128.25783572806165,41.65539052994784],[128.28925499889516,41.60743480078098],[128.29090864472846,41.56278636328079],[128.25494184785333,41.506562404947246],[128.20026818248851,41.43300100357976],[128.14941857311334,41.38773244889208],[128.11122968964963,41.38925690364469],[128.05278364472753,41.415611884113545],[128.01309614472734,41.44868480078034],[127.9186833029301,41.46113882096269],[127.68763797415312,41.440003160155314],[127.5721928244131,41.454756781574645],[127.51700239472541,41.48175771744714],[127.4203674663396,41.48377309830653],[127.27081587128691,41.51984324804626],[127.17965864472404,41.53136709244734],[127.1366638530572,41.554518134114105],[127.12839562389047,41.60743480078098],[127.08540083222363,41.64381500911446],[127.06126793834335,41.68735240332036],[127.00690433157229,41.74205190690131],[126.9547628113898,41.76949209244829],[126.90349979055628,41.78106761328168],[126.84727583222269,41.74799469661487],[126.78774458222244,41.71822907161476],[126.7430961447223,41.72484365494812],[126.72159874888888,41.716575425781414],[126.69700076711791,41.691874091145905],[126.60124433808107,41.64097280533841],[126.57835167857581,41.59436066341114],[126.54011111867982,41.49555532486907],[126.5135494324818,41.39401113541554],[126.49039839081502,41.35807017675654],[126.45143436086693,41.351843166665375],[126.41185021373138,41.321328233397026],[126.32870283417373,41.2257009954409],[126.25361697805369,41.13779938411243],[126.14447635305322,41.07826813411219],[126.0932133322197,41.023697821611975],[126.06675499888627,40.97408844661177],[125.98903364471926,40.904635321611494],[125.87493208221883,40.892232977861454],[125.78403323781743,40.87202749283533],[125.72827436737447,40.866704820309266],[125.70851476185581,40.852873096446196],[125.57644900931427,40.912619330317796],[125.6917391296571,41.0040607771831],[125.76641157393499,41.13947886795535],[125.73767947832516,41.245234687131074],[125.65075971928559,41.286265774345964],[125.46989220626028,41.57456859046806],[125.44953169183407,41.67993683511685],[125.30628462133814,41.68037608468853],[125.32819542937557,41.74737457887369],[125.28628584211788,41.825922756729824],[125.29543256965735,41.95723257082648],[125.45821333227946,42.10544057871971],[125.48053755056742,42.151432604231275],[125.28396040305006,42.23445079217032],[125.2694910011088,42.309045722082374],[125.17936730385793,42.33328196918751],[125.20871951709194,42.405835679972654],[125.10195600756367,42.493866482152384],[125.09575483581693,42.57667796541574],[125.0189119812029,42.64685456028968],[124.94212080343232,42.80369253178492],[124.86031701142088,42.88769257345348],[124.88842899030556,43.08672435214709],[124.76569746296752,43.10558624890626],[124.67319664890613,42.99897776990815],[124.51956261562214,42.87167287880027],[124.3759021339763,42.98556773516282],[124.41889692595237,43.08186676753729],[124.29580366430764,43.15656505023685],[124.28185102810244,43.22599233717659],[124.00641564256784,43.31012156825574],[123.80653120315242,43.454221300372694],[123.74870527582777,43.47228221325349],[123.69625369705045,43.35347809543771],[123.6059232933253,43.36505361573177],[123.37813357970094,43.45316193317666],[123.36139041643457,43.539771632954455],[123.48996137941413,43.591448066275234],[123.52215579565336,43.69697134145423],[123.32227135623805,44.041859850551646],[123.35906497556812,44.15133637097671],[123.25757246269893,44.20407217149352],[123.1681722349606,44.36682709389527],[123.11654747938258,44.406488756450926],[123.12378217990363,44.49439036742149],[123.04451053343428,44.51325226507993],[122.95531701127095,44.44684804919808],[122.71538333477304,44.33556285274341],[122.3766443223775,44.21996267403813],[122.25406782377104,44.245930081008396],[122.28186974519258,44.42865794510806],[122.08818647662451,44.61967987692475],[122.04596683190368,44.69494660130459],[122.02255740799797,44.84672028351423],[122.03806033691501,44.9343635120664],[122.01077518122963,45.1183316114147],[122.19184939982983,45.201039740991234],[122.2340173686066,45.28705516246578],[122.13645226436051,45.449086616254306],[122.0270532574018,45.484510810025824],[121.96390465657464,45.56750316044247],[121.93439741370958,45.689950466041125],[121.7849491723664,45.67597199231358],[121.66640343606969,45.71576284427982],[121.81476647269449,45.913709418254996],[121.77368371043485,46.01034434741365],[121.99599572182501,45.98029450129019],[122.23980512920332,45.81348297815691],[122.3985551286163,45.949185288869955],[122.49787723204861,45.825420234556134],[122.64696373908521,45.725064602349505],[122.77341596857207,45.788471584695856],[122.8005977723692,45.9130634631083],[122.79873742129496,46.089331773042886],[123.06890180927098,46.10865875869473],[123.16166100485145,46.22007314725789],[123.25834760995417,46.265083319939265],[123.356119418876,46.23516266502497],[123.91939253074065,46.27234385798266],[124.0340625352577,46.01848338549979],[123.97944054614425,45.978124090954],[124.06196780766811,45.87167064068751],[124.0178361350296,45.781727809690665],[124.14103275036109,45.63220205308227],[124.22356001188496,45.63550934498028],[124.3322872252752,45.54727183722548],[124.39559085483404,45.45148956968785],[124.56307417243511,45.41526439113869],[124.61185672410852,45.447923896270765],[124.87246097159652,45.44859568893986],[125.02774865127924,45.49836009434284],[125.10350630117478,45.3953172878625],[125.30742150289996,45.41696971348148],[125.43247846930592,45.47725027108311],[125.52120690257641,45.47102326091476],[125.6987154477597,45.51091746746715],[125.7049166204057,45.35971222603837],[125.84072228390619,45.23481028926341],[126.15047081917294,45.14117259453957],[126.42104861919836,45.22845408788584],[126.55933475139761,45.246747544763366],[126.78898481699571,45.14933747014811],[126.95269575380598,45.13419627553765],[127.07661583865001,44.9340017768605],[126.97827558804795,44.8261013857703],[127.03227746043638,44.73055166312872],[127.04498986229225,44.598234157780155],[127.14725752241668,44.654690660445624],[127.23309207583861,44.615959173876774],[127.37520226477261,44.64882538548312],[127.5592737160091,44.57379120510001],[127.49281782418313,44.41090709148904],[127.61761640817065,44.2722333847629],[127.60981326686874,44.220091865247355],[127.71471642532276,44.161490789768095],[127.74437869691928,44.08562978798432],[127.84959191283644,44.055915839544355],[128.0520601746373,44.12578237605578],[128.042965123042,44.340704658193374],[128.15525800984926,44.35300364799991],[128.2069344422706,44.44049184782051],[128.35870812358098,44.501676743886605],[128.4187561380852,44.45010366515203],[128.45069217280547,44.31553823510143],[128.44593794188245,44.15394603088458],[128.5287752626682,44.08010040980605],[128.63150800988672,43.91217784353262],[128.74741824785383,43.80218455737139],[128.76447147038198,43.70906362568576],[128.88286217704774,43.556153062813564],[129.01489546065693,43.53966828106627],[129.2289392436511,43.60839793601593],[129.21571007695843,43.738260810188194],[129.24924808213325,43.78616486271824],[129.53491539902643,43.87031993311837],[129.75242150265012,43.874169827375624],[129.80213423120972,43.9654820830317],[129.9129285021486,44.021602688013616],[130.00010664270735,43.98356883433422],[130.03317955898945,43.85561798807964],[130.1036145371811,43.845437729967216],[130.28019290637747,43.96444855425733],[130.33279951388636,43.92780996455821],[130.41408654196027,43.66916942003269],[130.58870120729478,43.62772492076846],[130.9165881689088,43.45047475800368],[130.99461958192808,43.50773224544673],[131.1494938495615,43.436108709749135],[131.2450725846415,43.466681333078924]]]}},{"type":"Feature","properties":{"name":"黑龙江省","name_en":"Heilongjiang","iso_3166_2":"CN-HL","source":"Natural Earth Admin-1 1:50m"},"geometry":{"type":"Polygon","coordinates":[[[121.4054374532947,53.31705597595803],[121.74391808480647,53.38361522074996],[122.02434582093515,53.43878477686878],[122.08880659392241,53.45146637634919],[122.33778364470467,53.48500438090662],[122.380158319184,53.46252513285965],[122.51586063038246,53.45699575460442],[122.74478722543546,53.4685195990055],[122.95759077361339,53.497716783250425],[123.15406456918708,53.54458730733914],[123.30961063038563,53.555594387417315],[123.42402225147987,53.530763861701075],[123.48949629119363,53.52944611267763],[123.53471316944905,53.5264488796047],[123.5597245626783,53.526681423550016],[123.60778364470974,53.546525173550094],[123.7409538107259,53.510997626349436],[123.99468509327897,53.405629380906305],[124.15431359262857,53.358681342169135],[124.21994266163927,53.37010183370563],[124.29146284393124,53.34085297302843],[124.3691325216659,53.270934760137536],[124.46592247934859,53.22964529073633],[124.63986535044302,53.21065420186906],[124.81236128143331,53.1338371852672],[124.88212446502735,53.12972890889999],[124.90661909393367,53.17267202413453],[124.97095625213706,53.19732168233776],[125.07503258677292,53.203677883509656],[125.2255660340391,53.16579905863972],[125.4224532410712,53.08373688416022],[125.54595991424873,53.047615057988196],[125.59598270070728,53.05748525655595],[125.64905439667103,53.04226654724599],[125.69168745331183,53.003690090540104],[125.69535648000453,52.95630280212846],[125.68078372609824,52.93082632100857],[125.72811933807759,52.89072540955007],[125.7827930034424,52.89072540955007],[125.87188317271358,52.87152761495365],[125.94164635630761,52.800705064497635],[126.00432986867764,52.767890529992286],[126.04815148326117,52.739468492231765],[126.05600630096956,52.715878200890515],[126.0601404155529,52.691977850955524],[126.04701460175073,52.673477688195035],[126.0232434428965,52.64301443135898],[126.01595706594333,52.61022573506979],[126.04592939667265,52.57335460062953],[126.15662031464183,52.54663788513463],[126.19444746307948,52.51914602315536],[126.20297407440762,52.483825181683855],[126.2375972840432,52.4448094753035],[126.31283816946012,52.39974762634499],[126.34167361867901,52.36202383077192],[126.32420698456434,52.331663926800445],[126.34632449758527,52.30626496032899],[126.38353152883542,52.28649872497735],[126.3914896994084,52.21448761657862],[126.39479699107505,52.17301727966439],[126.45556847545032,52.126456814169416],[126.46807417206492,52.031294664103925],[126.51055219940883,51.92582306579621],[126.65369591685732,51.781284084675846],[126.70082482310755,51.703045966185954],[126.68873253795124,51.609925035195985],[126.70919640513881,51.5662842881255],[126.77451541555575,51.54507111266969],[126.80541792206628,51.505641994830995],[126.80180057180587,51.4480486110417],[126.82732872935804,51.41226268167958],[126.84774092011332,51.37417715108046],[126.83383995982683,51.31487844502554],[126.85440717987899,51.261367499387305],[126.88773847870726,51.23012909606686],[126.9115096375615,51.17232900654841],[126.92484215709283,51.10013703063666],[127.0203918804005,50.98588043883933],[127.19826216034909,50.829455878291824],[127.30698937389121,50.70796458597363],[127.34683190318822,50.62135488545245],[127.34719363821426,50.55009308532196],[127.30822960826623,50.494179185582155],[127.30605919810995,50.45350983336844],[127.34078576061012,50.42808502868084],[127.35117272350078,50.39361684834216],[127.33722008678194,50.3501569687847],[127.39525272024571,50.29858388935742],[127.59027957571527,50.208976955763305],[127.51235151581909,50.071672675163796],[127.49178429576693,49.975037746778],[127.50242964081906,49.87341604267603],[127.55079878144426,49.801792507519494],[127.63668501191336,49.76019297952453],[127.69017011933545,49.716758938183204],[127.71115075084595,49.671542059927816],[127.81429690970054,49.622139390656784],[127.99960859589919,49.568602606802415],[128.23706180228032,49.55930084898988],[128.52675988170859,49.59423411721917],[128.70401004446973,49.60012523050045],[128.7690189962929,49.57697418883369],[128.7910331564492,49.54183421487522],[128.77025923066788,49.49470530862503],[128.81935184134517,49.463751125682194],[128.93831098848108,49.448919989614424],[129.02026981009595,49.4192577174789],[129.06512495332532,49.374660956411006],[129.1201086772839,49.3620519069318],[129.18511762910703,49.38137889260895],[129.24842125866462,49.37864004169748],[129.30986453665963,49.353835354197386],[129.35006880098274,49.36236196552554],[129.38469201061827,49.38944041604648],[129.4407092632227,49.38944041604648],[129.49817345593124,49.388820298858974],[129.53372684134803,49.32342377379362],[129.59139773978575,49.286655992217945],[129.6710827983798,49.27849111591583],[129.79252241426576,49.19885773375405],[130.0370552918709,48.97225657815419],[130.1960119976007,48.89164134377887],[130.35527876192424,48.866371568388146],[130.55314782116983,48.86120392515896],[130.61717492077946,48.77317312274975],[130.56560184135213,48.68012970640822],[130.55211429252398,48.60251170510584],[130.5972794943471,48.57465810810052],[130.65923953666504,48.483397528673066],[130.74688276583203,48.43037750914161],[130.76341922416543,48.3884162461206],[130.80424360567605,48.34149404559959],[130.78719038301972,48.254574286484655],[130.71205285046733,48.12765696877581],[130.7325683940872,48.019239813827454],[130.84863366101473,47.92942617450419],[130.91539961153586,47.84291982684759],[130.93286624565053,47.75979828550611],[130.96196007703082,47.70931041115695],[131.00278445854138,47.6914562038001],[131.12184695854188,47.69763153745899],[131.31935428276142,47.72781057391744],[131.46425499890785,47.722617092472106],[131.55675581271026,47.68202525490685],[131.78526899630498,47.680500800154235],[132.14979454969182,47.717966213565845],[132.380168084849,47.72949005796693],[132.4762862489119,47.71496898049291],[132.56186242078724,47.768505764347296],[132.63689660047504,47.89010040953006],[132.707176548392,47.947254543644874],[132.77280561740264,47.94007151955631],[132.87708865776767,47.97908722593668],[133.02012902235157,48.064405015650564],[133.1440491069875,48.10564280861948],[133.30114546115476,48.10153453225227],[133.46837039605128,48.097167873723606],[133.57327355360377,48.133031317734165],[133.6717688335521,48.20770376239592],[133.8421977072507,48.27374624286493],[134.20589643772087,48.35989085549549],[134.29338463759103,48.373430080755966],[134.32315073237677,48.3701350777262],[134.3349324891537,48.36883087828198],[134.4561653993104,48.3553433294538],[134.56354902561293,48.321727810247936],[134.66519656793105,48.253928331081],[134.6808028504832,48.21044261330739],[134.66933068251438,48.153340155624875],[134.6472131694935,48.12016388609349],[134.60535525933705,48.08290517841105],[134.56597781793067,48.02249542906185],[134.59129926975368,47.97521149351478],[134.650313755431,47.87428742124875],[134.6985795431916,47.801423651717215],[134.75232303277517,47.715408230167384],[134.72808678603025,47.68447988544071],[134.69578901584782,47.62487112079202],[134.5961568543891,47.52386953387756],[134.54189660048263,47.485163886090945],[134.48350223199282,47.447388414085594],[134.3825264832945,47.438241685569935],[134.33942833876307,47.4295083685126],[134.2908524924087,47.413592027366704],[134.26005333876276,47.377728583356145],[134.22522342339806,47.3526138372623],[134.16765587782493,47.30217763934543],[134.16295332248632,47.258717759787956],[134.18925662652293,47.194225572287706],[134.20212405816358,47.12805390073795],[134.13690840061122,47.0690135768445],[134.0864205262621,46.97811473244309],[134.07138268446516,46.95077789976068],[134.0460095562098,46.8819965683802],[134.03856814995981,46.85817373309365],[134.02260013238163,46.713169664082656],[133.97239344711238,46.63682280232893],[133.95753950412615,46.61423513445986],[133.86658898329244,46.49912588152971],[133.88674279188626,46.4305512558784],[133.90276248589674,46.366937567727106],[133.88023156141753,46.33603506121656],[133.8747538595946,46.3090599635602],[133.86131798719867,46.24777171486204],[133.83279259657354,46.22425893816924],[133.75021365777116,46.18591502540866],[133.70070763563552,46.139767971372024],[133.71114627495848,46.06964305275196],[133.6857214702709,46.00894908302514],[133.64779096896865,45.95523143165775],[133.60800011610394,45.92029816342844],[133.55115604058284,45.89781891538148],[133.513122186416,45.878801988298065],[133.48470014865552,45.81043406837591],[133.47581180230128,45.75764659278977],[133.44914676323867,45.70506582293278],[133.4655798687075,45.65121898048466],[133.4364343608949,45.60471019142197],[133.35550906792582,45.57220571551038],[133.30951704318608,45.553059597346234],[133.26693566297757,45.54528229428631],[133.1860103700085,45.49484609636944],[133.11335330620608,45.32141998959791],[133.09692020073726,45.22047007911574],[133.11345665907066,45.1307339544409],[133.01175744032025,45.074561672539645],[132.9359997905804,45.02991323503946],[132.88876753146565,45.04606212013067],[132.8386413921425,45.061125800143756],[132.7231445659702,45.080556138685495],[132.6656286968293,45.093707790703775],[132.54904666557883,45.1228016220841],[132.3630115093281,45.15998281511811],[132.18136884982215,45.203287665378696],[132.0674223166186,45.22597361915483],[131.97750532443075,45.24398285580854],[131.90924075737314,45.27372264259252],[131.85182824109688,45.32684601498856],[131.79488081271126,45.30529694272285],[131.74206749890897,45.242613430352804],[131.65401085828358,45.205354722670364],[131.6139616232574,45.136573391289886],[131.5787699728666,45.08365672462301],[131.48750939343915,45.013118394544605],[131.44689171765776,44.98402456316428],[131.26829796765708,44.93612051042972],[131.22799035046938,44.92015249285153],[131.08231448783863,44.91002391212231],[131.03296349499988,44.88888825131494],[130.9817004741663,44.84431732846319],[130.96774783744752,44.79995311134063],[131.00392134005182,44.75323761654877],[131.06066206270833,44.65967743588433],[131.0869136903126,44.59567617449085],[131.12577436739605,44.46919810645649],[131.2552755067195,44.07157379818666],[131.2133142436985,44.002921657886915],[131.17424686088583,43.70474864356281],[131.18365197156294,43.650875962898525],[131.18003462130253,43.5671084661534],[131.18246341362027,43.50558767350992],[131.20918012911517,43.490420640632266],[131.24390669161528,43.46902659766343],[131.2450725846415,43.466681333078924],[131.1494938495615,43.436108709749135],[130.99461958192808,43.50773224544673],[130.9165881689088,43.45047475800368],[130.58870120729478,43.62772492076846],[130.41408654196027,43.66916942003269],[130.33279951388636,43.92780996455821],[130.28019290637747,43.96444855425733],[130.1036145371811,43.845437729967216],[130.03317955898945,43.85561798807964],[130.00010664270735,43.98356883433422],[129.9129285021486,44.021602688013616],[129.80213423120972,43.9654820830317],[129.75242150265012,43.874169827375624],[129.53491539902643,43.87031993311837],[129.24924808213325,43.78616486271824],[129.21571007695843,43.738260810188194],[129.2289392436511,43.60839793601593],[129.01489546065693,43.53966828106627],[128.88286217704774,43.556153062813564],[128.76447147038198,43.70906362568576],[128.74741824785383,43.80218455737139],[128.63150800988672,43.91217784353262],[128.5287752626682,44.08010040980605],[128.44593794188245,44.15394603088458],[128.45069217280547,44.31553823510143],[128.4187561380852,44.45010366515203],[128.35870812358098,44.501676743886605],[128.2069344422706,44.44049184782051],[128.15525800984926,44.35300364799991],[128.042965123042,44.340704658193374],[128.0520601746373,44.12578237605578],[127.84959191283644,44.055915839544355],[127.74437869691928,44.08562978798432],[127.71471642532276,44.161490789768095],[127.60981326686874,44.220091865247355],[127.61761640817065,44.2722333847629],[127.49281782418313,44.41090709148904],[127.5592737160091,44.57379120510001],[127.37520226477261,44.64882538548312],[127.23309207583861,44.615959173876774],[127.14725752241668,44.654690660445624],[127.04498986229225,44.598234157780155],[127.03227746043638,44.73055166312872],[126.97827558804795,44.8261013857703],[127.07661583865001,44.9340017768605],[126.95269575380598,45.13419627553765],[126.78898481699571,45.14933747014811],[126.55933475139761,45.246747544763366],[126.42104861919836,45.22845408788584],[126.15047081917294,45.14117259453957],[125.84072228390619,45.23481028926341],[125.7049166204057,45.35971222603837],[125.6987154477597,45.51091746746715],[125.52120690257641,45.47102326091476],[125.43247846930592,45.47725027108311],[125.30742150289996,45.41696971348148],[125.10350630117478,45.3953172878625],[125.02774865127924,45.49836009434284],[124.87246097159652,45.44859568893986],[124.61185672410852,45.447923896270765],[124.56307417243511,45.41526439113869],[124.39559085483404,45.45148956968785],[124.3322872252752,45.54727183722548],[124.22356001188496,45.63550934498028],[124.14103275036109,45.63220205308227],[124.0178361350296,45.781727809690665],[124.06196780766811,45.87167064068751],[123.97944054614425,45.978124090954],[124.0340625352577,46.01848338549979],[123.91939253074065,46.27234385798266],[123.356119418876,46.23516266502497],[123.25834760995417,46.265083319939265],[123.16166100485145,46.22007314725789],[122.98890669238995,46.40657339124897],[123.01970584464891,46.612348944947826],[123.09417158425117,46.62196076138002],[123.29152387902377,46.58635569955584],[123.39725385977772,46.59782786706239],[123.53610843275794,46.691982327522396],[123.60871382038647,46.774638780255486],[123.4893929377339,46.81729767544732],[123.37999393077519,46.89806793958371],[123.33048790868997,46.832645576532116],[123.18682742704402,46.76164215845881],[122.99624474479913,46.84029368820313],[122.79734215731469,47.03371857435269],[122.57404829309417,47.131128648068625],[122.40522138925564,47.33168488195173],[122.49472496978149,47.41023305890849],[122.56536665264889,47.5311559111164],[122.79734215731469,47.64355215071117],[123.0954118186005,47.754940700852615],[123.20682620716366,47.81382599537335],[123.29328087820988,47.94565257430685],[123.57755293202217,48.05432811085359],[123.72694949832066,48.191063951240324],[124.07793582637726,48.44830923088625],[124.2340503283599,48.53083649420881],[124.30076460170494,48.49187246454255],[124.32717125914621,48.332192288243505],[124.42556318569245,48.174372463918075],[124.52049279160894,48.12869049676897],[124.56224734923569,48.236177476709145],[124.52069949808333,48.36903758441696],[124.538062778974,48.57168671337109],[124.61624922072485,48.66757233279691],[124.62183027574656,48.74198639645499],[124.8215596864303,49.060881660160476],[124.86393436078208,49.175396633248],[125.15812829028835,49.1511087101988],[125.22287885977153,49.220045070723415],[125.267372267616,49.43848135033403],[125.23569461531417,49.554391588301144],[125.13063642812858,49.63655711551843],[125.21957156787346,49.66813141503275],[125.23476443932736,49.84796540018306],[125.1884623563526,49.94186147732529],[125.2952258649816,50.01446686495382],[125.26442671092389,50.10572744376651],[125.41842247941383,50.19461090846664],[125.53076704306454,50.39304840795762],[125.80940636591106,50.5622370470021],[125.82403079568462,50.766798203873975],[126.00102257693038,50.90175120755214],[126.05626468276887,50.98027354608723],[125.98438276555214,51.104219469352984],[125.8706946147646,51.144759630152805],[125.84340945907923,51.206228746159695],[125.7194893742352,51.25371938753966],[125.57691409730774,51.389318346364576],[125.48663537042592,51.507398993768504],[125.33331139460518,51.58274323251413],[125.12753584180564,51.615738634430386],[125.06061486198621,51.53437409109142],[124.82062951134287,51.36585724471604],[124.66622033080353,51.33526479803197],[124.50188927636896,51.360586248956224],[124.35078738772768,51.27862742821321],[124.16206505655703,51.328365994295154],[124.00440026276192,51.30172679285715],[123.86626915929423,51.31343150525976],[123.78875451111173,51.232816270754256],[123.56964643793276,51.203903307091934],[123.43833662293673,51.273098050034946],[123.27168012943434,51.266690171813934],[123.08812544213538,51.31247549085117],[122.9562471863585,51.38606273130995],[122.83894168531049,51.510551256035626],[122.83553104062503,51.567757065735975],[122.71445315968549,51.70167654153914],[122.75419233570767,51.84748159420019],[122.63766198101553,52.09496002958167],[122.77512129091474,52.20001821586794],[122.73073123585777,52.24890412032886],[122.49177941308938,52.29484446899704],[122.33861046779884,52.453697822096785],[122.17365929573987,52.47963939154465],[122.01790652896307,52.28311391907209],[121.83125125534116,52.2693679884419],[121.69234500461823,52.388533841463584],[121.4909102715917,52.4446802839679],[121.17392703670339,52.594981187831536],[121.50274417520347,52.7746859808733],[121.69151818231819,52.9083470733587],[121.80019371976425,53.02358551685808],[121.60718224476477,53.24072988527598],[121.4054374532947,53.31705597595803]]]}}]}
